#aV2023  9 22  0  0  0.00000000     288 DD+AD WGS84 FIT  NGA
## 2280 432000.00000000   300.00000000 60209 0.0000000000000
+   32     1  2  3  4  5  6  7  8  9 10 11 12 13 14 15 16 17
+         18 19 20 21 22 23 24 25 26 27 28 29 30 31 32  0  0
+          0  0  0  0  0  0  0  0  0  0  0  0  0  0  0  0  0
+          0  0  0  0  0  0  0  0  0  0  0  0  0  0  0  0  0
+          0  0  0  0  0  0  0  0  0  0  0  0  0  0  0  0  0
++         2  2  2  2  2  2  2  2  2  2  2  2  2  2  2  2  2
++         2  2  2  2  2  2  2  2  2  2  2  2  2  2  2  0  0
++         0  0  0  0  0  0  0  0  0  0  0  0  0  0  0  0  0
++         0  0  0  0  0  0  0  0  0  0  0  0  0  0  0  0  0
++         0  0  0  0  0  0  0  0  0  0  0  0  0  0  0  0  0
%c cc cc ccc ccc cccc cccc cccc cccc ccccc ccccc ccccc ccccc
%c cc cc ccc ccc cccc cccc cccc cccc ccccc ccccc ccccc ccccc
%f  0.0000000  0.000000000  0.00000000000  0.000000000000000
%f  0.0000000  0.000000000  0.00000000000  0.000000000000000
%i    0    0    0    0      0      0      0      0         0
%i    0    0    0    0      0      0      0      0         0
/*      NGA, ST. LOUIS,MO.                                  
/*   EPHEMERIS COMPUTED FROM 2 DAYS OF DATA                 
/*   EPOCHA v8 SMOOTHER                                     
/*   G2139 IERS2010 SATIGS SATAPC                           
*  2023  9 22 17 50  0.00000000
P  1 -13633.399102  16551.775919  15100.373438    164.917039                    
V  1   2483.706841 -19788.288087  23729.896344     -0.007918                    
P  2 -14948.188464   9923.675752  20030.657249   -550.870327                    
V  2   1550.434778 -24352.013668  13736.464725      0.045385                    
P  3 -22188.949417  12702.961664  -7123.667866   -120.898780                    
V  3  -9071.659778    865.769473  30531.427530      0.212625                    
P  4 -12710.041746   8715.179685 -21633.762735    163.584757                    
V  4 -19927.395970 -18908.859037   3967.372547      0.110568                    
P  5  25113.938232  -4141.966525  -7947.013939   -143.715732                    
V  5  -8247.794396   5793.728713 -29674.758071     -0.014641                    
P  6   6856.963286  19769.325962 -16240.285135    545.422185                    
V  6  -5470.287329  20027.953342  22071.074994     -0.072179                    
P  7  -5203.155335  25765.221127   -274.579047     60.123853                    
V  7  -3329.384749  -1578.748281 -31844.027122     -0.104199                    
P  8 -20054.111885   -423.758634  17533.200552   -143.554878                    
V  8 -16282.333766 -15270.596115 -18515.392327     -0.018611                    
P  9  -3626.852990  16104.390689 -20884.713685    -52.644256                    
V  9 -20836.799764 -16141.585083  -8915.938947      0.104262                    
P 10  -6542.758370 -13445.440703  22146.206291    -54.427006                    
V 10  26077.767546  -9062.427804   1904.228174     -0.015152                    
P 11  13616.106858   7224.988056 -21619.110491   -381.233836                    
V 11  -6861.424161  26596.221219   4512.722709     -0.181147                    
P 12  24366.194679  -9669.784900  -4292.026417   -427.711528                    
V 12   5646.625012   1266.083699  31256.366661     -0.043147                    
P 13  20778.908595  10433.714994  12837.203714    575.611369                    
V 13   9399.926705  13723.343025 -25764.795126      0.044885                    
P 14   2509.202241  15411.656728  21498.949648    192.658530                    
V 14 -26153.612889   7851.872410  -2746.028848      0.112975                    
P 15  19559.025208  -2767.628852  17381.923490     80.038026                    
V 15  18266.077456  14178.124338 -17570.232947      0.036837                    
P 16 -24010.095997  -2488.689551 -11887.658293   -450.323211                    
V 16  13557.915736  -5340.090875 -26527.362566      0.056846                    
P 17  10554.038081  21537.548173  11716.071339    723.835480                    
V 17 -11592.840326  -8505.511618  27201.769141      0.000971                    
P 18   4536.983521 -26032.239365   1400.104601   -425.784657                    
V 18   2848.373389  -1215.302026 -32109.332615     -0.123512                    
P 19  16572.796184  20749.604155   2977.657545    375.047348                    
V 19  -4315.807502  -1425.613414  31477.580918      0.051765                    
P 20  19881.886095   3069.765918 -17205.458755    410.548619                    
V 20 -18300.883414  12430.517251 -19072.099057     -0.019554                    
P 21 -15405.524393   5996.824684  21110.129957    148.375224              E     
V 21   1496.407676 -25820.571070   9540.669175     -0.009135                    
P 22   9660.566375  12993.120136  21467.785915    116.791979                    
V 22 -25301.248024   6991.823740   7585.550073     -0.073259                    
P 23   7511.768937 -16728.983004  19153.710686     72.043354                    
V 23  23190.153327  -7462.026563 -15787.928281      0.053785                    
P 24  14522.334230 -12419.290920  17890.234968   -326.663726                    
V 24    -82.994708  23841.521425  16693.589274     -0.104630                    
P 25  14491.068152 -16586.797774 -14965.342718    469.103057                    
V 25  18266.727560  -4135.743299  23018.615732      0.019557                    
P 26 -17121.481640  -7935.135602 -18944.245801    227.192671                    
V 26  21253.955965 -10774.353641 -14437.584737     -0.019493                    
P 27 -22483.091425 -11804.430715   8219.760916    -43.712748                    
V 27  -6665.133413  -8611.557592 -29275.105739     -0.061471                    
P 28  -6903.587907 -21176.209862 -14493.435309    -13.546899                    
V 28   4901.082285 -17816.962931  23733.779166     -0.056956                    
P 29   4500.210848 -15678.822472 -20984.837895   -609.530458                    
V 29  19201.457343  18311.954638  -9685.149124     -0.003553                    
P 30   1774.501800  24852.724214   8935.921823   -485.426802                    
V 30  -5597.833812  10410.422132 -28485.801782      0.034711                    
P 31 -12051.962435 -12296.343402 -20300.739027   -223.724257                    
V 31   6596.927800 -24658.256725  11537.845059     -0.005107                    
P 32 -15202.261129 -20405.912295   8147.420978   -561.975066                    
V 32   9230.256158   4653.465417  29330.401485     -0.058663                    
EOF
